[{"OBJECT_NAME":"SHIYAN-6 01 (SY-6 01)","OBJECT_ID":"2018-094B","EPOCH":"2026-03-09T23:04:36.967872","MEAN_MOTION":15.28649156,"ECCENTRICITY":0.00144834,"INCLINATION":97.3669,"RA_OF_ASC_NODE":84.0964,"ARG_OF_PERICENTER":135.6758,"MEAN_ANOMALY":224.5644,"EPHEMERIS_TYPE":0,"CLASSIFICATION_TYPE":"U","NORAD_CAT_ID":43711,"ELEMENT_SET_NO":999,"REV_AT_EPOCH":40632,"BSTAR":0.00024768444,"MEAN_MOTION_DOT":6.847e-5,"MEAN_MOTION_DDOT":0},{"OBJECT_NAME":"STARLINK-35216","OBJECT_ID":"2025-198AA","EPOCH":"2026-03-09T22:16:53.911200","MEAN_MOTION":15.30208648,"ECCENTRICITY":8.442e-5,"INCLINATION":53.1571,"RA_OF_ASC_NODE":270.0946,"ARG_OF_PERICENTER":140.656,"MEAN_ANOMALY":219.4502,"EPHEMERIS_TYPE":0,"CLASSIFICATION_TYPE":"U","NORAD_CAT_ID":65516,"ELEMENT_SET_NO":999,"REV_AT_EPOCH":2865,"BSTAR":0.00066892878,"MEAN_MOTION_DOT":0.0001951,"MEAN_MOTION_DDOT":0}]
